ONEWEB-0142             
1 47288U 20100AG  25330.13642300  .00000655  00000+0  17859-2 0  9991
2 47288  87.8958  31.0073 0001451  92.9918 267.1377 13.12453287238034
ONEWEB-0143             
1 47289U 20100AH  25330.14602559  .00000101  00000+0  24426-3 0  9990
2 47289  87.8956  31.0004 0001765 100.3919 259.7409 13.12445316238015
ONEWEB-0144             
1 47290U 20100AJ  25330.19469466 -.00000234  00000+0 -68518-3 0  9994
2 47290  87.8958  30.9608 0001793  88.0482 272.0852 13.12443110237946
ONEWEB-0145             
1 47291U 20100AK  25330.16550757  .00000554  00000+0  15045-2 0  9995
2 47291  87.8960  31.0038 0001753  98.0196 262.1132 13.12442464238132
ONEWEB-0146             
1 47292U 20100AL  25330.16226350  .00000491  00000+0  13287-2 0  9991
2 47292  87.8957  30.9910 0001998 108.7411 251.3934 13.12442974238042
ONEWEB-0147             
1 47293U 20100AM  25330.12818606 -.00000372  00000+0 -10696-2 0  9990
2 47293  87.8960  30.9759 0002003  94.0138 266.1219 13.12442926237933
ONEWEB-0115             
1 48042U 21025A   25330.16243463  .00000264  00000+0  68852-3 0  9993
2 48042  87.9002   0.5691 0001781  95.5377 264.5956 13.13469782226944
ONEWEB-0152             
1 48043U 21025B   25330.17597421 -.00000009  00000+0 -60084-4 0  9990
2 48043  87.8993   0.5747 0001879  97.2315 262.9028 13.13468926226901
ONEWEB-0153             
1 48044U 21025C   25330.15397072  .00000351  00000+0  92509-3 0  9993
2 48044  87.8997   0.5834 0001753  95.1771 264.9559 13.13469709226896
ONEWEB-0154             
1 48045U 21025D   25330.15058536  .00000299  00000+0  78516-3 0  9996
2 48045  87.8997   0.5806 0001852  93.3252 266.8089 13.13470051226857
ONEWEB-0116             
1 48046U 21025E   25330.11333513 -.00000282  00000+0 -80704-3 0  9990
2 48046  87.9001   0.5721 0001876  98.3314 261.8027 13.13469977226998
ONEWEB-0150             
1 48047U 21025F   25330.16581176  .00000268  00000+0  69933-3 0  9999
2 48047  87.9002   0.5571 0001587  96.2887 263.8423 13.13469762226897
ONEWEB-0107             
1 48048U 21025G   25330.09133446  .00000229  00000+0  59142-3 0  9993
2 48048  87.9001   0.5688 0001675  86.7324 273.3997 13.13469474226863
ONEWEB-0101             
1 48049U 21025H   25330.13026459 -.00000204  00000+0 -59380-3 0  9993
2 48049  87.8990   0.5952 0001837  90.3781 269.7558 13.13470967226841
ONEWEB-0113             
1 48050U 21025J   25330.15306928  .00000241  00000+0  62015-3 0  9997
2 48050  87.8999   0.5217 0001748 103.1884 256.9441 13.13983830226942
ONEWEB-0112             
1 48051U 21025K   25330.09641024  .00000072  00000+0  16256-3 0  9998
2 48051  87.9000   0.5648 0001707  94.8357 265.2967 13.13469591226939
ONEWEB-0156             
1 48052U 21025L   25330.10486610 -.00000158  00000+0 -46686-3 0  9996
2 48052  87.9001   0.5747 0001668  91.7344 268.3976 13.13469080226914
