[{"OBJECT_NAME":"ONEWEB-0142","OBJECT_ID":"2020-100AG","EPOCH":"2025-11-26T03:16:26.947200","MEAN_MOTION":13.12453287,"ECCENTRICITY":0.0001451,"INCLINATION":87.8958,"RA_OF_ASC_NODE":31.0073,"ARG_OF_PERICENTER":92.9918,"MEAN_ANOMALY":267.1377,"EPHEMERIS_TYPE":0,"CLASSIFICATION_TYPE":"U","NORAD_CAT_ID":47288,"ELEMENT_SET_NO":999,"REV_AT_EPOCH":23803,"BSTAR":0.0017859,"MEAN_MOTION_DOT":6.55e-6,"MEAN_MOTION_DDOT":0},{"OBJECT_NAME":"ONEWEB-0143","OBJECT_ID":"2020-100AH","EPOCH":"2025-11-26T03:30:16.610976","MEAN_MOTION":13.12445316,"ECCENTRICITY":0.0001765,"INCLINATION":87.8956,"RA_OF_ASC_NODE":31.0004,"ARG_OF_PERICENTER":100.3919,"MEAN_ANOMALY":259.7409,"EPHEMERIS_TYPE":0,"CLASSIFICATION_TYPE":"U","NORAD_CAT_ID":47289,"ELEMENT_SET_NO":999,"REV_AT_EPOCH":23801,"BSTAR":0.00024426,"MEAN_MOTION_DOT":1.01e-6,"MEAN_MOTION_DDOT":0},{"OBJECT_NAME":"ONEWEB-0144","OBJECT_ID":"2020-100AJ","EPOCH":"2025-11-26T04:40:21.618624","MEAN_MOTION":13.1244311,"ECCENTRICITY":0.0001793,"INCLINATION":87.8958,"RA_OF_ASC_NODE":30.9608,"ARG_OF_PERICENTER":88.0482,"MEAN_ANOMALY":272.0852,"EPHEMERIS_TYPE":0,"CLASSIFICATION_TYPE":"U","NORAD_CAT_ID":47290,"ELEMENT_SET_NO":999,"REV_AT_EPOCH":23794,"BSTAR":-0.00068518,"MEAN_MOTION_DOT":-2.34e-6,"MEAN_MOTION_DDOT":0},{"OBJECT_NAME":"ONEWEB-0145","OBJECT_ID":"2020-100AK","EPOCH":"2025-11-26T03:58:19.854048","MEAN_MOTION":13.12442464,"ECCENTRICITY":0.0001753,"INCLINATION":87.896,"RA_OF_ASC_NODE":31.0038,"ARG_OF_PERICENTER":98.0196,"MEAN_ANOMALY":262.1132,"EPHEMERIS_TYPE":0,"CLASSIFICATION_TYPE":"U","NORAD_CAT_ID":47291,"ELEMENT_SET_NO":999,"REV_AT_EPOCH":23813,"BSTAR":0.0015045,"MEAN_MOTION_DOT":5.54e-6,"MEAN_MOTION_DDOT":0},{"OBJECT_NAME":"ONEWEB-0146","OBJECT_ID":"2020-100AL","EPOCH":"2025-11-26T03:53:39.566400","MEAN_MOTION":13.12442974,"ECCENTRICITY":0.0001998,"INCLINATION":87.8957,"RA_OF_ASC_NODE":30.991,"ARG_OF_PERICENTER":108.7411,"MEAN_ANOMALY":251.3934,"EPHEMERIS_TYPE":0,"CLASSIFICATION_TYPE":"U","NORAD_CAT_ID":47292,"ELEMENT_SET_NO":999,"REV_AT_EPOCH":23804,"BSTAR":0.0013287,"MEAN_MOTION_DOT":4.91e-6,"MEAN_MOTION_DDOT":0},{"OBJECT_NAME":"ONEWEB-0147","OBJECT_ID":"2020-100AM","EPOCH":"2025-11-26T03:04:35.275584","MEAN_MOTION":13.12442926,"ECCENTRICITY":0.0002003,"INCLINATION":87.896,"RA_OF_ASC_NODE":30.9759,"ARG_OF_PERICENTER":94.0138,"MEAN_ANOMALY":266.1219,"EPHEMERIS_TYPE":0,"CLASSIFICATION_TYPE":"U","NORAD_CAT_ID":47293,"ELEMENT_SET_NO":999,"REV_AT_EPOCH":23793,"BSTAR":-0.0010696,"MEAN_MOTION_DOT":-3.72e-6,"MEAN_MOTION_DDOT":0},{"OBJECT_NAME":"ONEWEB-0115","OBJECT_ID":"2021-025A","EPOCH":"2025-11-26T03:53:54.352032","MEAN_MOTION":13.13469782,"ECCENTRICITY":0.0001781,"INCLINATION":87.9002,"RA_OF_ASC_NODE":0.5691,"ARG_OF_PERICENTER":95.5377,"MEAN_ANOMALY":264.5956,"EPHEMERIS_TYPE":0,"CLASSIFICATION_TYPE":"U","NORAD_CAT_ID":48042,"ELEMENT_SET_NO":999,"REV_AT_EPOCH":22694,"BSTAR":0.00068852,"MEAN_MOTION_DOT":2.64e-6,"MEAN_MOTION_DDOT":0},{"OBJECT_NAME":"ONEWEB-0152","OBJECT_ID":"2021-025B","EPOCH":"2025-11-26T04:13:24.171744","MEAN_MOTION":13.13468926,"ECCENTRICITY":0.0001879,"INCLINATION":87.8993,"RA_OF_ASC_NODE":0.5747,"ARG_OF_PERICENTER":97.2315,"MEAN_ANOMALY":262.9028,"EPHEMERIS_TYPE":0,"CLASSIFICATION_TYPE":"U","NORAD_CAT_ID":48043,"ELEMENT_SET_NO":999,"REV_AT_EPOCH":22690,"BSTAR":-6.0084e-5,"MEAN_MOTION_DOT":-9.0e-8,"MEAN_MOTION_DDOT":0},{"OBJECT_NAME":"ONEWEB-0153","OBJECT_ID":"2021-025C","EPOCH":"2025-11-26T03:41:43.070208","MEAN_MOTION":13.13469709,"ECCENTRICITY":0.0001753,"INCLINATION":87.8997,"RA_OF_ASC_NODE":0.5834,"ARG_OF_PERICENTER":95.1771,"MEAN_ANOMALY":264.9559,"EPHEMERIS_TYPE":0,"CLASSIFICATION_TYPE":"U","NORAD_CAT_ID":48044,"ELEMENT_SET_NO":999,"REV_AT_EPOCH":22689,"BSTAR":0.00092509,"MEAN_MOTION_DOT":3.51e-6,"MEAN_MOTION_DDOT":0},{"OBJECT_NAME":"ONEWEB-0154","OBJECT_ID":"2021-025D","EPOCH":"2025-11-26T03:36:50.575104","MEAN_MOTION":13.13470051,"ECCENTRICITY":0.0001852,"INCLINATION":87.8997,"RA_OF_ASC_NODE":0.5806,"ARG_OF_PERICENTER":93.3252,"MEAN_ANOMALY":266.8089,"EPHEMERIS_TYPE":0,"CLASSIFICATION_TYPE":"U","NORAD_CAT_ID":48045,"ELEMENT_SET_NO":999,"REV_AT_EPOCH":22685,"BSTAR":0.00078516,"MEAN_MOTION_DOT":2.99e-6,"MEAN_MOTION_DDOT":0},{"OBJECT_NAME":"ONEWEB-0116","OBJECT_ID":"2021-025E","EPOCH":"2025-11-26T02:43:12.155232","MEAN_MOTION":13.13469977,"ECCENTRICITY":0.0001876,"INCLINATION":87.9001,"RA_OF_ASC_NODE":0.5721,"ARG_OF_PERICENTER":98.3314,"MEAN_ANOMALY":261.8027,"EPHEMERIS_TYPE":0,"CLASSIFICATION_TYPE":"U","NORAD_CAT_ID":48046,"ELEMENT_SET_NO":999,"REV_AT_EPOCH":22699,"BSTAR":-0.00080704,"MEAN_MOTION_DOT":-2.82e-6,"MEAN_MOTION_DDOT":0},{"OBJECT_NAME":"ONEWEB-0150","OBJECT_ID":"2021-025F","EPOCH":"2025-11-26T03:58:46.136064","MEAN_MOTION":13.13469762,"ECCENTRICITY":0.0001587,"INCLINATION":87.9002,"RA_OF_ASC_NODE":0.5571,"ARG_OF_PERICENTER":96.2887,"MEAN_ANOMALY":263.8423,"EPHEMERIS_TYPE":0,"CLASSIFICATION_TYPE":"U","NORAD_CAT_ID":48047,"ELEMENT_SET_NO":999,"REV_AT_EPOCH":22689,"BSTAR":0.00069933,"MEAN_MOTION_DOT":2.68e-6,"MEAN_MOTION_DDOT":0},{"OBJECT_NAME":"ONEWEB-0107","OBJECT_ID":"2021-025G","EPOCH":"2025-11-26T02:11:31.297344","MEAN_MOTION":13.13469474,"ECCENTRICITY":0.0001675,"INCLINATION":87.9001,"RA_OF_ASC_NODE":0.5688,"ARG_OF_PERICENTER":86.7324,"MEAN_ANOMALY":273.3997,"EPHEMERIS_TYPE":0,"CLASSIFICATION_TYPE":"U","NORAD_CAT_ID":48048,"ELEMENT_SET_NO":999,"REV_AT_EPOCH":22686,"BSTAR":0.00059142,"MEAN_MOTION_DOT":2.29e-6,"MEAN_MOTION_DDOT":0},{"OBJECT_NAME":"ONEWEB-0101","OBJECT_ID":"2021-025H","EPOCH":"2025-11-26T03:07:34.860576","MEAN_MOTION":13.13470967,"ECCENTRICITY":0.0001837,"INCLINATION":87.899,"RA_OF_ASC_NODE":0.5952,"ARG_OF_PERICENTER":90.3781,"MEAN_ANOMALY":269.7558,"EPHEMERIS_TYPE":0,"CLASSIFICATION_TYPE":"U","NORAD_CAT_ID":48049,"ELEMENT_SET_NO":999,"REV_AT_EPOCH":22684,"BSTAR":-0.0005938,"MEAN_MOTION_DOT":-2.04e-6,"MEAN_MOTION_DDOT":0},{"OBJECT_NAME":"ONEWEB-0113","OBJECT_ID":"2021-025J","EPOCH":"2025-11-26T03:40:25.185792","MEAN_MOTION":13.1398383,"ECCENTRICITY":0.0001748,"INCLINATION":87.8999,"RA_OF_ASC_NODE":0.5217,"ARG_OF_PERICENTER":103.1884,"MEAN_ANOMALY":256.9441,"EPHEMERIS_TYPE":0,"CLASSIFICATION_TYPE":"U","NORAD_CAT_ID":48050,"ELEMENT_SET_NO":999,"REV_AT_EPOCH":22694,"BSTAR":0.00062015,"MEAN_MOTION_DOT":2.41e-6,"MEAN_MOTION_DDOT":0},{"OBJECT_NAME":"ONEWEB-0112","OBJECT_ID":"2021-025K","EPOCH":"2025-11-26T02:18:49.844736","MEAN_MOTION":13.13469591,"ECCENTRICITY":0.0001707,"INCLINATION":87.9,"RA_OF_ASC_NODE":0.5648,"ARG_OF_PERICENTER":94.8357,"MEAN_ANOMALY":265.2967,"EPHEMERIS_TYPE":0,"CLASSIFICATION_TYPE":"U","NORAD_CAT_ID":48051,"ELEMENT_SET_NO":999,"REV_AT_EPOCH":22693,"BSTAR":0.00016256,"MEAN_MOTION_DOT":7.2e-7,"MEAN_MOTION_DDOT":0},{"OBJECT_NAME":"ONEWEB-0156","OBJECT_ID":"2021-025L","EPOCH":"2025-11-26T02:31:00.431040","MEAN_MOTION":13.1346908,"ECCENTRICITY":0.0001668,"INCLINATION":87.9001,"RA_OF_ASC_NODE":0.5747,"ARG_OF_PERICENTER":91.7344,"MEAN_ANOMALY":268.3976,"EPHEMERIS_TYPE":0,"CLASSIFICATION_TYPE":"U","NORAD_CAT_ID":48052,"ELEMENT_SET_NO":999,"REV_AT_EPOCH":22691,"BSTAR":-0.00046686,"MEAN_MOTION_DOT":-1.58e-6,"MEAN_MOTION_DDOT":0}]
